[{"OBJECT_NAME":"STARLINK-1954","OBJECT_ID":"2021-009H","EPOCH":"2026-03-09T23:20:25.352160","MEAN_MOTION":15.30849174,"ECCENTRICITY":0.00046184,"INCLINATION":53.0574,"RA_OF_ASC_NODE":8.8654,"ARG_OF_PERICENTER":103.3293,"MEAN_ANOMALY":256.8222,"EPHEMERIS_TYPE":0,"CLASSIFICATION_TYPE":"U","NORAD_CAT_ID":47555,"ELEMENT_SET_NO":999,"REV_AT_EPOCH":28100,"BSTAR":0.0022371791,"MEAN_MOTION_DOT":0.00067883,"MEAN_MOTION_DDOT":0},{"OBJECT_NAME":"STARLINK-32001","OBJECT_ID":"2024-117V","EPOCH":"2026-03-09T21:47:40.843104","MEAN_MOTION":15.3018548,"ECCENTRICITY":0.00013418,"INCLINATION":53.1616,"RA_OF_ASC_NODE":35.8403,"ARG_OF_PERICENTER":68.5082,"MEAN_ANOMALY":291.6062,"EPHEMERIS_TYPE":0,"CLASSIFICATION_TYPE":"U","NORAD_CAT_ID":60110,"ELEMENT_SET_NO":999,"REV_AT_EPOCH":9692,"BSTAR":3.9274042e-5,"MEAN_MOTION_DOT":8.04e-6,"MEAN_MOTION_DDOT":0}]
